NORAD_CAT_ID,OBJECT_NAME,OBJECT_TYPE,EPOCH,MEAN_MOTION,ECCENTRICITY,INCLINATION,RA_OF_ASC_NODE,ARG_OF_PERICENTER,MEAN_ANOMALY,BSTAR,MEAN_MOTION_DOT,MEAN_MOTION_DDOT,TLE_LINE0,TLE_LINE1,TLE_LINE2,SEMIMAJOR_AXIS,PERIOD,APOGEE,PERIGEE,DECAYED
54159.0,STARLINK-5294,PAYLOAD,2023-07-01 01:40:01,15.08834901,0.0001225,53.2154,105.3753,80.7238,279.3893,-6.014e-06,-3.84e-06,0.0,0 STARLINK-5294,1 54159U 22141C   23182.06946237 -.00000384  00000-0 -60140-5 0  9990,2 54159  53.2154 105.3753 0001225  80.7238 279.3893 15.08834901 37378,6917.896,95.438,540.608,538.914,0.0
54159.0,STARLINK-5294,PAYLOAD,2023-07-02 04:41:34,15.08842117,0.0001291,53.2163,100.3222,92.8977,267.2162,3.3694e-05,2.48e-06,0.0,0 STARLINK-5294,1 54159U 22141C   23183.19553865  .00000248  00000-0  33694-4 0  9996,2 54159  53.2163 100.3222 0001291  92.8977 267.2162 15.08842117 37543,6917.874,95.437,540.632,538.846,0.0
54159.0,STARLINK-5294,PAYLOAD,2023-07-03 10:53:54,15.08843093,0.0001228,53.2158,94.6726,95.3068,264.8064,0.00014739,2.059e-05,0.0,0 STARLINK-5294,1 54159U 22141C   23184.45409839  .00002059  00000-0  14739-3 0  9997,2 54159  53.2158  94.6726 0001228  95.3068 264.8064 15.08843093 37739,6917.871,95.437,540.585,538.886,0.0
54159.0,STARLINK-5294,PAYLOAD,2023-07-04 01:12:22,15.08838746,0.0001562,53.2177,91.9967,102.7019,257.4147,-5.7091e-05,-1.196e-05,0.0,0 STARLINK-5294,1 54159U 22141C   23185.05026187 -.00001196  00000-0 -57091-4 0  9997,2 54159  53.2177  91.9967 0001562 102.7019 257.4147 15.08838746 37826,6917.884,95.438,540.83,538.669,0.0
54159.0,STARLINK-5294,PAYLOAD,2023-07-05 01:03:09,15.08847899,0.0001293,53.2174,87.5363,91.5805,268.5336,0.00013642,1.884e-05,0.0,0 STARLINK-5294,1 54159U 22141C   23186.04385808  .00001884  00000-0  13642-3 0  9990,2 54159  53.2174  87.5363 0001293  91.5805 268.5336 15.08847899 37971,6917.856,95.437,540.616,538.827,0.0
54159.0,STARLINK-5294,PAYLOAD,2023-07-05 10:35:28,15.08842076,0.0001251,53.217,85.7517,86.2443,273.8692,1.8247e-05,3e-08,0.0,0 STARLINK-5294,1 54159U 22141C   23186.44130063  .00000003  00000-0  18247-4 0  9994,2 54159  53.2170  85.7517 0001251  86.2443 273.8692 15.08842076 38035,6917.874,95.437,540.604,538.874,0.0
54159.0,STARLINK-5294,PAYLOAD,2023-07-06 02:29:20,15.08835743,0.0001348,53.2169,82.7778,84.1314,275.9832,6.9494e-05,8.18e-06,0.0,0 STARLINK-5294,1 54159U 22141C   23187.10370714  .00000818  00000-0  69494-4 0  9991,2 54159  53.2169  82.7778 0001348  84.1314 275.9832 15.08835743 38133,6917.893,95.438,540.691,538.826,0.0
54159.0,STARLINK-5294,PAYLOAD,2023-07-07 02:20:06,15.08849008,0.0001311,53.2167,78.3169,83.7554,276.3587,0.00017518,2.502e-05,0.0,0 STARLINK-5294,1 54159U 22141C   23188.09730121  .00002502  00000-0  17518-3 0  9993,2 54159  53.2167  78.3169 0001311  83.7554 276.3587 15.08849008 38284,6917.853,95.437,540.625,538.811,0.0
54159.0,STARLINK-5294,PAYLOAD,2023-07-08 02:10:53,15.08846672,0.0001301,53.2169,73.8534,98.0234,262.0906,0.00017741,2.537e-05,0.0,0 STARLINK-5294,1 54159U 22141C   23189.09090170  .00002537  00000-0  17741-3 0  9993,2 54159  53.2169  73.8534 0001301  98.0234 262.0906 15.08846672 38433,6917.86,95.437,540.625,538.825,0.0
54159.0,STARLINK-5294,PAYLOAD,2023-07-09 02:01:41,15.08840223,0.0001154,53.2171,69.3953,97.2027,262.9096,0.00012558,1.711e-05,0.0,0 STARLINK-5294,1 54159U 22141C   23190.08450517  .00001711  00000-0  12558-3 0  9993,2 54159  53.2171  69.3953 0001154  97.2027 262.9096 15.08840223 38589,6917.88,95.438,540.543,538.946,0.0
54159.0,STARLINK-5294,PAYLOAD,2023-07-09 16:20:09,15.08835228,0.000115,53.2171,66.7191,96.3464,263.7659,-1.2137e-05,-4.81e-06,0.0,0 STARLINK-5294,1 54159U 22141C   23190.68066897 -.00000481  00000-0 -12137-4 0  9992,2 54159  53.2171  66.7191 0001150  96.3464 263.7659 15.08835228 38678,6917.895,95.438,540.556,538.964,0.0
54159.0,STARLINK-5294,PAYLOAD,2023-07-10 01:52:28,15.08848646,0.0001016,53.2167,64.9353,90.4553,269.6556,0.00019248,2.778e-05,0.0,0 STARLINK-5294,1 54159U 22141C   23191.07810401  .00002778  00000-0  19248-3 0  9992,2 54159  53.2167  64.9353 0001016  90.4553 269.6556 15.08848646 38734,6917.854,95.437,540.422,539.016,0.0
54159.0,STARLINK-5294,PAYLOAD,2023-07-10 08:14:00,15.08840201,0.0001123,53.2168,63.745,84.0972,276.0148,4.5964e-05,4.44e-06,0.0,0 STARLINK-5294,1 54159U 22141C   23191.34306532  .00000444  00000-0  45964-4 0  9990,2 54159  53.2168  63.7450 0001123  84.0972 276.0148 15.08840201 38775,6917.88,95.438,540.522,538.968,0.0
54159.0,STARLINK-5294,PAYLOAD,2023-07-11 23:58:39,15.088389,0.0001125,53.2181,56.3114,104.8281,255.2836,6.5732e-05,7.58e-06,0.0,0 STARLINK-5294,1 54159U 22141C   23192.99907172  .00000758  00000-0  65732-4 0  9992,2 54159  53.2181  56.3114 0001125 104.8281 255.2836 15.08838900 39026,6917.884,95.438,540.527,538.97,0.0
54159.0,STARLINK-5294,PAYLOAD,2023-07-13 07:46:22,15.08843352,0.000104,53.2177,50.3644,91.4499,268.6613,4.3325e-05,4.02e-06,0.0,0 STARLINK-5294,1 54159U 22141C   23194.32387029  .00000402  00000-0  43325-4 0  9994,2 54159  53.2177  50.3644 0001040  91.4499 268.6613 15.08843352 39221,6917.87,95.437,540.455,539.016,0.0
54159.0,STARLINK-5294,PAYLOAD,2023-07-14 23:30:59,15.08854348,0.0001078,53.2176,42.9285,105.6901,254.421,0.00014125,1.962e-05,0.0,0 STARLINK-5294,1 54159U 22141C   23195.97986011  .00001962  00000-0  14125-3 0  9999,2 54159  53.2176  42.9285 0001078 105.6901 254.4210 15.08854348 39475,6917.837,95.437,540.447,538.956,0.0
54159.0,STARLINK-5294,PAYLOAD,2023-07-15 17:00:15,15.08835937,0.0001037,53.2173,39.659,90.3053,269.8058,8.2033e-05,1.018e-05,0.0,0 STARLINK-5294,1 54159U 22141C   23196.70851531  .00001018  00000-0  82033-4 0  9995,2 54159  53.2173  39.6590 0001037  90.3053 269.8058 15.08835937 39582,6917.893,95.438,540.475,539.04,0.0
54159.0,STARLINK-5294,PAYLOAD,2023-07-16 23:12:34,15.08846667,0.0001077,53.2177,34.0095,78.7594,281.3519,0.000124,1.687e-05,0.0,0 STARLINK-5294,1 54159U 22141C   23197.96707053  .00001687  00000-0  12400-3 0  9995,2 54159  53.2177  34.0095 0001077  78.7594 281.3519 15.08846667 39773,6917.86,95.437,540.47,538.98,0.0
54159.0,STARLINK-5294,PAYLOAD,2023-07-17 16:41:49,15.08841012,0.0001137,53.2183,30.7418,80.7238,279.3882,0.00015376,2.16e-05,0.0,0 STARLINK-5294,1 54159U 22141C   23198.69571353  .00002160  00000-0  15376-3 0  9990,2 54159  53.2183  30.7418 0001137  80.7238 279.3882 15.08841012 39888,6917.877,95.437,540.529,538.956,0.0
54159.0,STARLINK-5294,PAYLOAD,2023-07-17 23:03:21,15.08852174,0.0001165,53.2189,29.5512,79.9779,280.1344,0.00026836,3.987e-05,0.0,0 STARLINK-5294,1 54159U 22141C   23198.96066713  .00003987  00000-0  26836-3 0  9990,2 54159  53.2189  29.5512 0001165  79.9779 280.1344 15.08852174 39925,6917.843,95.437,540.514,538.902,0.0
54159.0,STARLINK-5294,PAYLOAD,2023-07-18 11:46:27,15.08835677,0.0001553,53.2179,27.1665,69.8091,290.3069,-8.3168e-05,-1.611e-05,0.0,0 STARLINK-5294,1 54159U 22141C   23199.49059661 -.00001611  00000-0 -83168-4 0  9999,2 54159  53.2179  27.1665 0001553  69.8091 290.3069 15.08835677 40000,6917.894,95.438,540.833,538.684,0.0
54159.0,STARLINK-5294,PAYLOAD,2023-07-18 22:54:09,15.08843063,0.0001035,53.2184,25.0912,90.7083,269.4028,3.8677e-05,3.28e-06,0.0,0 STARLINK-5294,1 54159U 22141C   23199.95427102  .00000328  00000-0  38677-4 0  9996,2 54159  53.2184  25.0912 0001035  90.7083 269.4028 15.08843063 40074,6917.871,95.437,540.452,539.02,0.0
54159.0,STARLINK-5294,PAYLOAD,2023-07-19 16:23:24,15.08827154,0.000113,53.2193,21.8194,98.4174,261.6946,-0.00015282,-2.718e-05,0.0,0 STARLINK-5294,1 54159U 22141C   23200.68292232 -.00002718  00000-0 -15282-3 0  9996,2 54159  53.2193  21.8194 0001130  98.4174 261.6946 15.08827154 40180,6917.92,95.438,540.566,539.003,0.0
54159.0,STARLINK-5294,PAYLOAD,2023-07-20 14:38:48,15.08841724,7.77e-05,53.2171,17.6534,106.6779,253.4298,0.00016887,2.401e-05,0.0,0 STARLINK-5294,1 54159U 22141C   23201.61027885  .00002401  00000-0  16887-3 0  9999,2 54159  53.2171  17.6534 0000777 106.6779 253.4298 15.08841724 40320,6917.875,95.437,540.278,539.203,0.0
54159.0,STARLINK-5294,PAYLOAD,2023-07-20 21:00:20,15.08850915,0.0001004,53.2176,16.4645,112.8357,247.2741,0.00033639,5.071e-05,0.0,0 STARLINK-5294,1 54159U 22141C   23201.87523474  .00005071  00000-0  33639-3 0  9992,2 54159  53.2176  16.4645 0001004 112.8357 247.2741 15.08850915 40360,6917.847,95.437,540.407,539.017,0.0
54159.0,STARLINK-5294,PAYLOAD,2023-07-21 14:29:35,15.08841864,6.23e-05,53.2176,13.1941,67.3224,292.7834,0.00020679,3.005e-05,0.0,0 STARLINK-5294,1 54159U 22141C   23202.60388058  .00003005  00000-0  20679-3 0  9996,2 54159  53.2176  13.1941 0000623  67.3224 292.7834 15.08841864 40479,6917.875,95.437,540.171,539.309,0.0
54159.0,STARLINK-5294,PAYLOAD,2023-07-24 12:26:33,15.08840835,0.0001011,53.2182,0.1127,91.9892,268.1216,0.00014301,1.989e-05,0.0,0 STARLINK-5294,1 54159U 22141C   23205.51844240  .00001989  00000-0  14301-3 0  9993,2 54159  53.2182   0.1127 0001011  91.9892 268.1216 15.08840835 40911,6917.878,95.438,540.442,539.043,0.0
54159.0,STARLINK-5294,PAYLOAD,2023-07-25 12:17:20,15.08834672,0.0001296,53.2199,355.6521,115.8977,244.2149,2.9467e-05,1.81e-06,0.0,0 STARLINK-5294,1 54159U 22141C   23206.51204570  .00000181  00000-0  29467-4 0  9993,2 54159  53.2199 355.6521 0001296 115.8977 244.2149 15.08834672 41069,6917.897,95.438,540.658,538.865,0.0
54159.0,STARLINK-5294,PAYLOAD,2023-07-26 12:08:07,15.08843401,0.000141,53.2189,351.1913,114.3332,245.7808,0.00012024,1.626e-05,0.0,0 STARLINK-5294,1 54159U 22141C   23207.50564275  .00001626  00000-0  12024-3 0  9999,2 54159  53.2189 351.1913 0001410 114.3332 245.7808 15.08843401 41216,6917.87,95.437,540.71,538.76,0.0
54159.0,STARLINK-5294,PAYLOAD,2023-07-26 18:29:39,15.08851815,0.0001379,53.2195,350.0036,107.1912,252.9231,0.00020527,2.981e-05,0.0,0 STARLINK-5294,1 54159U 22141C   23207.77059794  .00002981  00000-0  20527-3 0  9995,2 54159  53.2195 350.0036 0001379 107.1912 252.9231 15.08851815 41257,6917.844,95.437,540.663,538.755,0.0
